GALAXY 25 (G-25)        
1 24812U 97026A   24153.50952218  .00000012  00000+0  00000+0 0  9999
2 24812   5.5020  76.2772 0012184 343.9939 220.3157  0.99092750 98837
INTELSAT 5 (IS-5)       
1 24916U 97046A   24153.60952498 -.00000063  00000+0  00000+0 0  9994
2 24916   8.7697  55.6035 0001968  56.7151 163.8256  1.00271819 98135
GALAXY 11 (G-11)        
1 26038U 99071A   24154.55327260 -.00000052  00000+0  00000+0 0  9997
2 26038   4.8183  79.4510 0000100 112.3587  65.1600  1.00271349 89607
INTELSAT 9 (IS-9)       
1 26451U 00043A   24153.06507694  .00000007  00000+0  00000+0 0  9992
2 26451   8.7530  55.8021 0002228  18.4487 199.1010  1.00376452 36660
INTELSAT 1R (IS-1R)     
1 26608U 00072A   24154.15764353 -.00000137  00000+0  00000+0 0  9991
2 26608   6.2303  72.8701 0000097 300.4898  91.6042  1.00271730 86187
INTELSAT 10 (IS-10)     
1 26766U 01019A   24154.53597940 -.00000360  00000+0  00000+0 0  9994
2 26766   7.2904  66.7932 0003031  14.2518 126.4960  1.00133411 84466
INTELSAT 901 (IS-901)   
1 26824U 01024A   24153.69180762 -.00000199  00000+0  00000+0 0  9991
2 26824   0.0178  81.8354 0000668 304.5482  85.8448  1.00268193 84116
INTELSAT 902 (IS-902)   
1 26900U 01039A   24154.20257753 -.00000279  00000+0  00000+0 0  9994
2 26900   4.2243  80.8109 0004561  15.2667 177.9323  1.00271865 83309
INTELSAT 904 (IS-904)   
1 27380U 02007A   24153.69137250 -.00000211  00000+0  00000+0 0  9990
2 27380   5.0422  78.0174 0002832   2.7293  29.2912  1.00272409 81616
DIRECTV 5 (TEMPO 1)     
1 27426U 02023A   24154.10479646 -.00000052  00000+0  00000+0 0  9997
2 27426   2.9635  84.6198 0003788   6.8478  87.2115  1.00271840 80839
INTELSAT 905 (IS-905)   
1 27438U 02027A   24153.69232976 -.00000182  00000+0  00000+0 0  9994
2 27438   4.8678  78.6762 0002599 341.9635  54.7528  1.00271275 80498
GALAXY 3C (G-3C)        
1 27445U 02030A   24153.60681265 -.00000148  00000+0  00000+0 0  9998
2 27445   1.8043  87.0054 0003177  32.7014 254.4771  1.00271211 80473
INTELSAT 906 (IS-906)   
1 27513U 02041A   24154.49718722  .00000017  00000+0  00000+0 0  9997
2 27513   3.9005  82.0576 0003852 354.9321  57.5797  1.00272807 79508
GALAXY 23 (G-23)        
1 27854U 03034A   24154.56189223  .00000016  00000+0  00000+0 0  9993
2 27854   1.2691  89.2146 0002847 353.1681 250.5289  1.00272558 81083
GALAXY 13 (HORIZONS-1)  
1 27954U 03044A   24154.53544750  .00000137  00000+0  00000+0 0  9996
2 27954   0.0395  91.1551 0000245 111.8331  91.2534  1.00269573 75680
INTELSAT 10-02          
1 28358U 04022A   24154.41257279 -.00000007  00000+0  00000+0 0  9993
2 28358   0.0186 359.2780 0000721  59.7597 339.8547  1.00269608 73167
XM-3 (RHYTHM)           
1 28626U 05008A   24154.44427635 -.00000201  00000+0  00000+0 0  9990
2 28626   0.0156 258.0132 0003890 333.2028  94.9610  1.00269310 70592
DIRECTV 8               
1 28659U 05019A   24154.56296648  .00000005  00000+0  00000+0 0  9990
2 28659   0.0396 105.7278 0002965 335.8295 253.5806  1.00272029 69723
GALAXY 28 (G-28)        
1 28702U 05022A   24154.21218708 -.00000181  00000+0  00000+0 0  9992
2 28702   1.3728  88.1062 0001146 221.5180 288.9498  1.00271729 69358
GALAXY 14 (G-14)        
1 28790U 05030A   24154.13319017  .00000159  00000+0  00000+0 0  9998
2 28790   3.0931  84.0084 0001337 336.7523 271.1701  1.00272370 68826
SPACEWAY 2              
1 28903U 05046B   24154.54524562  .00000106  00000+0  00000+0 0  9991
2 28903   3.5809  80.4648 0000262 278.3442 310.0755  1.00271078 68022
GALAXY 16 (G-16)        
1 29236U 06023A   24154.20689956 -.00000123  00000+0  00000+0 0  9999
2 29236   0.0541 114.5955 0002660 319.0750 152.9754  1.00273165 65798
DIRECTV 9S              
1 29494U 06043A   24153.67710079 -.00000109  00000+0  00000+0 0  9992
2 29494   0.4907  89.6021 0002829 349.9270 313.6688  1.00270943 64631
GALAXY 17 (G-17)        
1 31307U 07016B   24154.44432647 -.00000202  00000+0  00000+0 0  9991
2 31307   1.0803  89.5455 0003911   3.7133 233.0842  1.00271508 62605
DIRECTV 10              
1 31862U 07032A   24154.46595372 -.00000099  00000+0  00000+0 0  9996
2 31862   0.0329 142.9793 0000418  61.8848 111.5129  1.00271321 61935
INTELSAT 11 (IS-11)     
1 32253U 07044B   24153.78591106 -.00000265  00000+0  00000+0 0  9994
2 32253   1.6253  87.9667 0003190 352.1068  50.5991  1.00271308 61058
HORIZONS-2              
1 32388U 07063B   24154.07202359 -.00000249  00000+0  00000+0 0  9998
2 32388   0.6733  89.8172 0001754 339.4559 133.8905  1.00274175 60401
DIRECTV 11              
1 32729U 08013A   24154.58106826 -.00000120  00000+0  00000+0 0  9999
2 32729   0.0145 106.2603 0000252  62.8076 192.4558  1.00263261 59471
GALAXY 18 (G-18)        
1 32951U 08024A   24154.19344760  .00000029  00000+0  00000+0 0  9993
2 32951   0.0150  25.7144 0002914  44.7932 127.2651  1.00270275 58614
INTELSAT 25 (IS-25)     
1 33153U 08034A   24154.47821630 -.00000220  00000+0  00000+0 0  9990
2 33153   0.7821  89.4373 0003039 351.2322 311.4184  1.00271351 58175
GALAXY 19 (G-19)        
1 33376U 08045A   24154.58364493 -.00000135  00000+0  00000+0 0  9995
2 33376   0.0418 106.6048 0002675 325.3618 292.6852  1.00272287 57375
FM-5                    
1 35493U 09034A   24153.39391024 -.00000196  00000+0  00000+0 0  9991
2 35493   0.0186 297.2129 0000993 305.6713  63.1395  1.00270980 39162
INTELSAT 14 (IS-14)     
1 36097U 09064A   24153.32966008 -.00000270  00000+0  00000+0 0  9991
2 36097   0.0199  42.6431 0002716  44.5517 236.7958  1.00271379 53129
INTELSAT 15 (IS-15)     
1 36106U 09067A   24153.86993890 -.00000181  00000+0  00000+0 0  9994
2 36106   0.0226 322.1107 0002161 120.6655 206.3809  1.00270400 53122
DIRECTV 12              
1 36131U 09075A   24154.46595312 -.00000099  00000+0  00000+0 0  9993
2 36131   0.0095  72.3145 0000524 262.2450 341.8910  1.00269925 52922
INTELSAT 16 (IS-16)     
1 36397U 10006A   24154.21960358 -.00000241  00000+0  00000+0 0  9991
2 36397   0.0099 316.4957 0002185 145.1573 152.3772  1.00271297 52244
XM-5                    
1 37185U 10053A   24153.47757868 -.00000019  00000+0  00000+0 0  9999
2 37185   0.0159  44.5786 0000165 165.7194  96.8853  1.00270744 50009
INTELSAT 17 (IS-17)     
1 37238U 10065B   24153.99719443  .00000002  00000+0  00000+0 0  9996
2 37238   0.0088  64.7547 0002907  23.9624 227.2229  1.00271864 49444
INTELSAT NEW DAWN       
1 37392U 11016A   24153.86214059  .00000159  00000+0  00000+0 0  9996
2 37392   0.0114 357.8144 0001410  95.6246 140.5478  1.00272969 48043
INTELSAT 18 (IS-18)     
1 37834U 11056A   24154.50768781  .00000057  00000+0  00000+0 0  9996
2 37834   0.0202 344.3792 0001757 103.4469 166.3993  1.00271299 46378
INTELSAT 22 (IS-22)     
1 38098U 12011A   24154.42719260 -.00000055  00000+0  00000+0 0  9999
2 38098   0.0122 108.3824 0001956 340.2573  28.6202  1.00273248 44584
INTELSAT 19 (IS-19)     
1 38356U 12030A   24154.20049451 -.00000053  00000+0  00000+0 0  9999
2 38356   0.0422  96.8728 0002823 340.1959  52.2672  1.00270966 44048
INTELSAT 20 (IS-20)     
1 38740U 12043A   24153.99712249 -.00000019  00000+0  00000+0 0  9999
2 38740   0.0107  98.3973 0000613 134.2118  85.8279  1.00265241 43356
INTELSAT 21 (IS-21)     
1 38749U 12045A   24154.46399213 -.00000281  00000+0  00000+0 0  9996
2 38749   0.0425 115.2670 0001751 322.4881 282.7115  1.00271955 43179
INTELSAT 23 (IS-23)     
1 38867U 12057A   24154.40239115 -.00000281  00000+0  00000+0 0  9998
2 38867   0.0245 249.3340 0001049 155.9842 297.9047  1.00264716 42638
FM-6                    
1 39360U 13058A   24154.46124686 -.00000013  00000+0  00000+0 0  9994
2 39360   0.0145 329.9180 0000416 314.2289  17.1661  1.00271117 38873
INTELSAT 30 (IS-30)     
1 40271U 14062A   24153.60681265 -.00000147  00000+0  00000+0 0  9997
2 40271   0.0098 354.1269 0001544 351.7882  28.0605  1.00272615 35295
DIRECTV 14              
1 40333U 14078B   24153.81924562 -.00000121  00000+0  00000+0 0  9998
2 40333   0.0106 308.6589 0000103 237.3301 260.4883  1.00269706 34777
DIRECTV 15              
1 40663U 15026A   24154.46595332 -.00000099  00000+0  00000+0 0  9993
2 40663   0.0530  99.6175 0000504  96.4866 120.1994  1.00272536 33068
SKY MEXICO-1            
1 40664U 15026B   24153.84347885 -.00000231  00000+0  00000+0 0  9991
2 40664   0.0027   2.1728 0002323  94.9440  18.5687  1.00272283 33063
INTELSAT 34 (IS-34)     
1 40874U 15039A   24153.82479994 -.00000282  00000+0  00000+0 0  9999
2 40874   0.0231   4.9681 0000530 347.1443 140.1070  1.00271799 32142
INTELSAT 31 (IS-31)     
1 41581U 16035A   24152.88104936 -.00000147  00000+0  00000+0 0  9998
2 41581   0.0387 135.8517 0001359  45.9676 290.1558  1.00270304 29204
INTELSAT 36 (IS-36)     
1 41747U 16053A   24151.06298135 -.00000020  00000+0  00000+0 0  9996
2 41747   0.0142   9.4727 0001658   2.3758 327.3885  1.00269647 28445
INTELSAT 33E (IS-33E)   
1 41748U 16053B   24153.88524500  .00000053  00000+0  00000+0 0  9992
2 41748   0.0160  44.5032 0001764  32.8317 192.1901  1.00272224 28747
INTELSAT 32E (IS-32E)   
1 41945U 17007B   24154.16229830 -.00000265  00000+0  00000+0 0  9997
2 41945   0.0176 354.9426 0000410 334.8439 296.5870  1.00270845 26777
INTELSAT 35E (IS-35E)   
1 42818U 17041A   24154.47760713 -.00000234  00000+0  00000+0 0  9995
2 42818   0.0151 354.6427 0001523  78.1017 316.1154  1.00271280 25344
INTELSAT 37E (IS-37E)   
1 42950U 17059A   24154.51507628 -.00000137  00000+0  00000+0 0  9992
2 42950   0.0205 331.0971 0002202 114.7429 333.0417  1.00269123 24570
AZERSPACE 2 (IS-38)     
1 43632U 18074A   24154.49344525  .00000141  00000+0  00000+0 0  9994
2 43632   0.0215 333.5231 0001240  90.9640  49.6991  1.00270055 20979
HORIZONS-3E             
1 43633U 18074B   24154.55327260 -.00000027  00000+0  00000+0 0  9993
2 43633   0.0435 190.6880 0000461  78.9422 350.0715  1.00269079 20858
AT&T T-16               
1 44333U 19034A   24154.46671699 -.00000112  00000+0  00000+0 0  9991
2 44333   0.0132 291.9308 0001241  20.6255   6.0340  1.00273701 18154
INTELSAT 39 (IS-39)     
1 44476U 19049B   24154.16785198  .00000037  00000+0  00000+0 0  9997
2 44476   0.0091 311.5152 0000245 324.6689  97.3143  1.00272929 17663
GALAXY 30 (G-30)        
1 46114U 20056C   24154.55851432  .00000041  00000+0  00000+0 0  9991
2 46114   0.0205 346.6895 0001904  90.6396 250.2496  1.00271790 13934
GALAXY 33 (G-33)        
1 54026U 22128A   24153.56021572  .00000083  00000+0  00000+0 0  9994
2 54026   0.0188 323.7631 0001780 108.1828 247.2516  1.00271252  6277
GALAXY 34 (G-34)        
1 54027U 22128B   24154.17252439  .00000063  00000+0  00000+0 0  9999
2 54027   0.0174 354.9540 0001493  77.4797 111.8736  1.00270064  6306
GALAXY 31 (G-31)        
1 54243U 22153A   24154.56172833  .00000017  00000+0  00000+0 0  9998
2 54243   0.0162 344.6623 0001080  85.9768 262.0904  1.00270809  5688
GALAXY 32 (G-32)        
1 54244U 22153B   24154.21138802 -.00000170  00000+0  00000+0 0  9990
2 54244   0.0134  16.2466 0002285  22.2783 197.7365  1.00271365  5698
GALAXY 35 (G-35)        
1 54741U 22170A   24154.47038266 -.00000158  00000+0  00000+0 0  9998
2 54741   0.0185 343.0235 0001446 104.6372 239.9941  1.00270060  5430
GALAXY 36 (G-36)        
1 54742U 22170B   24154.25206780 -.00000181  00000+0  00000+0 0  9999
2 54742   0.0425 129.4498 0002774 318.6275 164.8712  1.00271109  5447
GALAXY 37 (G-37)        
1 57493U 23112A   24154.55571779  .00000052  00000+0  00000+0 0  9994
2 57493   0.0196  26.4687 0001892  46.5625 251.5342  1.00271565  3054
